{
  "norad_id": 66713,
  "name": "FLOCK 4H-10",
  "history": [
    {
      "epoch": "2026-03-28T17:41:40.770816Z",
      "apogee_km": 511.3908253434047,
      "perigee_km": 507.2447153207604,
      "latitude_deg": -4.07732498560771e-06,
      "longitude_deg": 71.03699246044587,
      "height_km": 511.8311977467497,
      "semi_major_axis_km": 6887.454770332082,
      "eccentricity": 0.00030099,
      "inclination_deg": 97.4239,
      "raan_deg": 162.6103,
      "arg_perigee_deg": 286.2012,
      "mean_anomaly_deg": 73.8891,
      "mean_motion_rev_day": 15.18849079
    },
    {
      "epoch": "2026-03-30T04:28:46.838208Z",
      "apogee_km": 511.2949047245702,
      "perigee_km": 507.17212473445306,
      "latitude_deg": -2.5818214407894172e-05,
      "longitude_deg": -90.74295485769773,
      "height_km": 512.0153984114442,
      "semi_major_axis_km": 6887.370514729511,
      "eccentricity": 0.0002993,
      "inclination_deg": 97.4238,
      "raan_deg": 164.0342,
      "arg_perigee_deg": 278.6527,
      "mean_anomaly_deg": 81.4368,
      "mean_motion_rev_day": 15.1887695
    },
    {
      "epoch": "2026-03-30T04:28:46.839072Z",
      "apogee_km": 511.29462922975017,
      "perigee_km": 507.1724002292731,
      "latitude_deg": -3.032120413730321e-05,
      "longitude_deg": -90.74295788403988,
      "height_km": 512.0154398662313,
      "semi_major_axis_km": 6887.370514729511,
      "eccentricity": 0.00029926,
      "inclination_deg": 97.4238,
      "raan_deg": 164.0342,
      "arg_perigee_deg": 278.6527,
      "mean_anomaly_deg": 81.4368,
      "mean_motion_rev_day": 15.1887695
    },
    {
      "epoch": "2026-03-30T12:23:06.992160Z",
      "apogee_km": 511.2815497806305,
      "perigee_km": 507.1467973770841,
      "latitude_deg": 3.6617220924188217e-05,
      "longitude_deg": 150.6720912461564,
      "height_km": 512.0698518508462,
      "semi_major_axis_km": 6887.351173578857,
      "eccentricity": 0.00030017,
      "inclination_deg": 97.4238,
      "raan_deg": 164.3579,
      "arg_perigee_deg": 276.5653,
      "mean_anomaly_deg": 83.524,
      "mean_motion_rev_day": 15.18883348
    },
    {
      "epoch": "2026-03-30T18:42:35.032896Z",
      "apogee_km": 511.2792619529928,
      "perigee_km": 507.1188977206066,
      "latitude_deg": 2.7655413052227447e-05,
      "longitude_deg": 55.80442014330787,
      "height_km": 512.1000666936346,
      "semi_major_axis_km": 6887.336079836799,
      "eccentricity": 0.00030203,
      "inclination_deg": 97.4237,
      "raan_deg": 164.6168,
      "arg_perigee_deg": 275.2714,
      "mean_anomaly_deg": 84.8176,
      "mean_motion_rev_day": 15.18888341
    },
    {
      "epoch": "2026-03-31T04:11:46.975200Z",
      "apogee_km": 511.28189154184656,
      "perigee_km": 507.08062740356763,
      "latitude_deg": 5.852660914278637e-05,
      "longitude_deg": -86.49674585442406,
      "height_km": 512.1569469011537,
      "semi_major_axis_km": 6887.318259472707,
      "eccentricity": 0.000305,
      "inclination_deg": 97.4235,
      "raan_deg": 165.005,
      "arg_perigee_deg": 273.1787,
      "mean_anomaly_deg": 86.9099,
      "mean_motion_rev_day": 15.18894236
    }
  ]
}